{
  "type": "FeatureCollection",
  "features": [
    {
      "type": "Feature",
      "properties": {
        "norad_id": 36283,
        "name": "FENGYUN 1C DEB",
        "group": "fengyun-1c-debris",
        "lat": 12.903169230536149,
        "lon": -50.95394364280499,
        "alt_km": 512.042573199763,
        "timestamp": "2025-12-12T05:47:29.059578+00:00",
        "meta_object_name": "FENGYUN 1C DEB",
        "meta_object_id": "1999-025DXL",
        "meta_epoch": "2025-12-11T04:13:24.456864",
        "meta_mean_motion": 15.06102587,
        "meta_eccentricity": 0.00681761,
        "meta_inclination": 99.4213,
        "meta_ra_of_asc_node": 309.9259,
        "meta_arg_of_pericenter": 55.2807,
        "meta_mean_anomaly": 305.481,
        "meta_ephemeris_type": 0,
        "meta_classification_type": "U",
        "meta_norad_cat_id": 36283,
        "meta_element_set_no": 999,
        "meta_rev_at_epoch": 66642,
        "meta_bstar": 0.0027781303,
        "meta_mean_motion_dot": 0.00042936,
        "meta_mean_motion_ddot": 0,
        "tle_line1": "1 36283U 99025DXL 25345.17597751  .00042936  00000+0  27781-2 0  9998",
        "tle_line2": "2 36283  99.4213 309.9259 0068176  55.2807 305.4810 15.06102587666424"
      },
      "geometry": {
        "type": "Point",
        "coordinates": [
          -50.95394364280499,
          12.903169230536149
        ]
      }
    },
    {
      "type": "Feature",
      "properties": {
        "norad_id": 36644,
        "name": "FENGYUN 1C DEB",
        "group": "fengyun-1c-debris",
        "lat": -78.85839444980664,
        "lon": 173.70697245242226,
        "alt_km": 1061.4359797828001,
        "timestamp": "2025-12-12T05:47:29.059588+00:00",
        "meta_object_name": "FENGYUN 1C DEB",
        "meta_object_id": "1999-025DXN",
        "meta_epoch": "2025-12-06T15:56:19.275936",
        "meta_mean_motion": 13.59167664,
        "meta_eccentricity": 0.02857814,
        "meta_inclination": 98.4234,
        "meta_ra_of_asc_node": 120.1104,
        "meta_arg_of_pericenter": 196.1478,
        "meta_mean_anomaly": 163.0413,
        "meta_ephemeris_type": 0,
        "meta_classification_type": "U",
        "meta_norad_cat_id": 36644,
        "meta_element_set_no": 999,
        "meta_rev_at_epoch": 61485,
        "meta_bstar": 0.0026178612,
        "meta_mean_motion_dot": 2.485e-05,
        "meta_mean_motion_ddot": 0,
        "tle_line1": "1 36644U 99025DXN 25340.66411199  .00002485  00000+0  26179-2 0  9994",
        "tle_line2": "2 36644  98.4234 120.1104 0285781 196.1478 163.0413 13.59167664614851"
      },
      "geometry": {
        "type": "Point",
        "coordinates": [
          173.70697245242226,
          -78.85839444980664
        ]
      }
    },
    {
      "type": "Feature",
      "properties": {
        "norad_id": 36647,
        "name": "FENGYUN 1C DEB",
        "group": "fengyun-1c-debris",
        "lat": 21.760190469125174,
        "lon": 124.64162635299384,
        "alt_km": 900.0612988328121,
        "timestamp": "2025-12-12T05:47:29.059598+00:00",
        "meta_object_name": "FENGYUN 1C DEB",
        "meta_object_id": "1999-025DXR",
        "meta_epoch": "2025-12-11T15:51:19.671840",
        "meta_mean_motion": 13.88805669,
        "meta_eccentricity": 0.02394145,
        "meta_inclination": 96.1211,
        "meta_ra_of_asc_node": 126.7141,
        "meta_arg_of_pericenter": 303.0341,
        "meta_mean_anomaly": 54.8028,
        "meta_ephemeris_type": 0,
        "meta_classification_type": "U",
        "meta_norad_cat_id": 36647,
        "meta_element_set_no": 999,
        "meta_rev_at_epoch": 30397,
        "meta_bstar": 0.0036322152,
        "meta_mean_motion_dot": 5.493e-05,
        "meta_mean_motion_ddot": 0,
        "tle_line1": "1 36647U 99025DXR 25345.66064435  .00005493  00000+0  36322-2 0  9992",
        "tle_line2": "2 36647  96.1211 126.7141 0239414 303.0341  54.8028 13.88805669303970"
      },
      "geometry": {
        "type": "Point",
        "coordinates": [
          124.64162635299384,
          21.760190469125174
        ]
      }
    },
    {
      "type": "Feature",
      "properties": {
        "norad_id": 36652,
        "name": "FENGYUN 1C DEB",
        "group": "fengyun-1c-debris",
        "lat": 48.58234578424225,
        "lon": -101.31613574932622,
        "alt_km": 837.4025728711076,
        "timestamp": "2025-12-12T05:47:29.059608+00:00",
        "meta_object_name": "FENGYUN 1C DEB",
        "meta_object_id": "1999-025DXW",
        "meta_epoch": "2025-12-09T16:25:20.403552",
        "meta_mean_motion": 14.22780284,
        "meta_eccentricity": 0.00506653,
        "meta_inclination": 98.941,
        "meta_ra_of_asc_node": 65.8094,
        "meta_arg_of_pericenter": 2.278,
        "meta_mean_anomaly": 357.8619,
        "meta_ephemeris_type": 0,
        "meta_classification_type": "U",
        "meta_norad_cat_id": 36652,
        "meta_element_set_no": 999,
        "meta_rev_at_epoch": 64281,
        "meta_bstar": 0.0025536763,
        "meta_mean_motion_dot": 5.761e-05,
        "meta_mean_motion_ddot": 0,
        "tle_line1": "1 36652U 99025DXW 25343.68426393  .00005761  00000+0  25537-2 0  9997",
        "tle_line2": "2 36652  98.9410  65.8094 0050665   2.2780 357.8619 14.22780284642816"
      },
      "geometry": {
        "type": "Point",
        "coordinates": [
          -101.31613574932622,
          48.58234578424225
        ]
      }
    },
    {
      "type": "Feature",
      "properties": {
        "norad_id": 36657,
        "name": "FENGYUN 1C DEB",
        "group": "fengyun-1c-debris",
        "lat": -54.383854981169804,
        "lon": -56.306090541420126,
        "alt_km": 755.0551077995069,
        "timestamp": "2025-12-12T05:47:29.059619+00:00",
        "meta_object_name": "FENGYUN 1C DEB",
        "meta_object_id": "1999-025DYB",
        "meta_epoch": "2025-12-11T09:03:49.574304",
        "meta_mean_motion": 14.65508733,
        "meta_eccentricity": 0.01058344,
        "meta_inclination": 99.4119,
        "meta_ra_of_asc_node": 136.0942,
        "meta_arg_of_pericenter": 71.1358,
        "meta_mean_anomaly": 290.1282,
        "meta_ephemeris_type": 0,
        "meta_classification_type": "U",
        "meta_norad_cat_id": 36657,
        "meta_element_set_no": 999,
        "meta_rev_at_epoch": 66236,
        "meta_bstar": 0.0011868718,
        "meta_mean_motion_dot": 6.927e-05,
        "meta_mean_motion_ddot": 0,
        "tle_line1": "1 36657U 99025DYB 25345.37765711  .00006927  00000+0  11869-2 0  9998",
        "tle_line2": "2 36657  99.4119 136.0942 0105834  71.1358 290.1282 14.65508733662362"
      },
      "geometry": {
        "type": "Point",
        "coordinates": [
          -56.306090541420126,
          -54.383854981169804
        ]
      }
    },
    {
      "type": "Feature",
      "properties": {
        "norad_id": 36659,
        "name": "FENGYUN 1C DEB",
        "group": "fengyun-1c-debris",
        "lat": 5.38068302534731,
        "lon": -11.241225152162098,
        "alt_km": 905.7008370104368,
        "timestamp": "2025-12-12T05:47:29.059629+00:00",
        "meta_object_name": "FENGYUN 1C DEB",
        "meta_object_id": "1999-025DYD",
        "meta_epoch": "2025-12-08T06:34:16.718304",
        "meta_mean_motion": 13.87363788,
        "meta_eccentricity": 0.01358311,
        "meta_inclination": 99.8536,
        "meta_ra_of_asc_node": 345.5157,
        "meta_arg_of_pericenter": 86.5848,
        "meta_mean_anomaly": 275.0833,
        "meta_ephemeris_type": 0,
        "meta_classification_type": "U",
        "meta_norad_cat_id": 36659,
        "meta_element_set_no": 999,
        "meta_rev_at_epoch": 60363,
        "meta_bstar": 0.0010441294,
        "meta_mean_motion_dot": 1.275e-05,
        "meta_mean_motion_ddot": 0,
        "tle_line1": "1 36659U 99025DYD 25342.27380461  .00001275  00000+0  10441-2 0  9997",
        "tle_line2": "2 36659  99.8536 345.5157 0135831  86.5848 275.0833 13.87363788603631"
      },
      "geometry": {
        "type": "Point",
        "coordinates": [
          -11.241225152162098,
          5.38068302534731
        ]
      }
    },
    {
      "type": "Feature",
      "properties": {
        "norad_id": 36664,
        "name": "FENGYUN 1C DEB",
        "group": "fengyun-1c-debris",
        "lat": -59.41997391025873,
        "lon": 176.0160453100749,
        "alt_km": 933.4296144985501,
        "timestamp": "2025-12-12T05:47:29.059639+00:00",
        "meta_object_name": "FENGYUN 1C DEB",
        "meta_object_id": "1999-025DYJ",
        "meta_epoch": "2025-12-10T08:38:38.230944",
        "meta_mean_motion": 14.17954932,
        "meta_eccentricity": 0.01735524,
        "meta_inclination": 98.6046,
        "meta_ra_of_asc_node": 9.0387,
        "meta_arg_of_pericenter": 106.5288,
        "meta_mean_anomaly": 255.5032,
        "meta_ephemeris_type": 0,
        "meta_classification_type": "U",
        "meta_norad_cat_id": 36664,
        "meta_element_set_no": 999,
        "meta_rev_at_epoch": 63717,
        "meta_bstar": 0.00011870964,
        "meta_mean_motion_dot": 2.4e-06,
        "meta_mean_motion_ddot": 0,
        "tle_line1": "1 36664U 99025DYJ 25344.36016471  .00000240  00000+0  11871-3 0  9992",
        "tle_line2": "2 36664  98.6046   9.0387 0173552 106.5288 255.5032 14.17954932637171"
      },
      "geometry": {
        "type": "Point",
        "coordinates": [
          176.0160453100749,
          -59.41997391025873
        ]
      }
    }
  ]
}